{
    "links": {
        "self": "http://www.neowsapp.com/rest/v1/neo/3092202?api_key=iIulBulltgU6a56xZRHN4H3l9WmuAYTsLGpBGhQ2"
    },
    "id": "3092202",
    "neo_reference_id": "3092202",
    "name": "(1998 WY1)",
    "designation": "1998 WY1",
    "nasa_jpl_url": "http://ssd.jpl.nasa.gov/sbdb.cgi?sstr=3092202",
    "absolute_magnitude_h": 21.9,
    "estimated_diameter": {
        "kilometers": {
            "estimated_diameter_min": 0.1108038821,
            "estimated_diameter_max": 0.2477650126
        },
        "meters": {
            "estimated_diameter_min": 110.8038821264,
            "estimated_diameter_max": 247.7650126055
        },
        "miles": {
            "estimated_diameter_min": 0.068850319,
            "estimated_diameter_max": 0.1539539936
        },
        "feet": {
            "estimated_diameter_min": 363.5298086356,
            "estimated_diameter_max": 812.8773639568
        }
    },
    "is_potentially_hazardous_asteroid": false,
    "close_approach_data": [
        {
            "close_approach_date": "1998-11-17",
            "close_approach_date_full": "1998-Nov-17 15:06",
            "epoch_date_close_approach": 911315160000,
            "relative_velocity": {
                "kilometers_per_second": "14.1662731641",
                "kilometers_per_hour": "50998.5833907758",
                "miles_per_hour": "31688.5364407851"
            },
            "miss_distance": {
                "astronomical": "0.0772739769",
                "lunar": "30.0595770141",
                "kilometers": "11560022.350669203",
                "miles": "7183064.8055648814"
            },
            "orbiting_body": "Earth"
        },
        {
            "close_approach_date": "2000-12-01",
            "close_approach_date_full": "2000-Dec-01 01:07",
            "epoch_date_close_approach": 975632820000,
            "relative_velocity": {
                "kilometers_per_second": "18.3585176266",
                "kilometers_per_hour": "66090.6634556804",
                "miles_per_hour": "41066.1680788921"
            },
            "miss_distance": {
                "astronomical": "0.3019601576",
                "lunar": "117.4625013064",
                "kilometers": "45172596.401824312",
                "miles": "28068949.8295950256"
            },
            "orbiting_body": "Earth"
        }
    ],
    "orbital_data": {
        "orbit_id": "11",
        "orbit_determination_date": "2017-04-06 09:17:37",
        "first_observation_date": "1998-11-16",
        "last_observation_date": "1998-11-28",
        "data_arc_in_days": 12,
        "observations_used": 32,
        "orbit_uncertainty": "8",
        "minimum_orbit_intersection": ".0683693",
        "jupiter_tisserand_invariant": "4.169",
        "epoch_osculation": "2451137.5",
        "eccentricity": ".3568551955404495",
        "semi_major_axis": "1.614242177730599",
        "inclination": "24.65696003748272",
        "ascending_node_longitude": "238.7043645883566",
        "orbital_period": "749.1201220061138",
        "perihelion_distance": "1.038191469746905",
        "perihelion_argument": "157.899901381587",
        "aphelion_distance": "2.190292885714293",
        "perihelion_time": "2451116.149471098443",
        "mean_anomaly": "10.2602909450319",
        "mean_motion": ".4805637833301478",
        "equinox": "J2000",
        "orbit_class": {
            "orbit_class_type": "AMO",
            "orbit_class_description": "Near-Earth asteroid orbits similar to that of 1221 Amor",
            "orbit_class_range": "1.017 AU < q (perihelion) < 1.3 AU"
        }
    },
    "is_sentry_object": false
}